ESTCUBE 1               
1 39161U 13021C   22148.11085632  .00001823  00000+0  29176-3 0  9991
2 39161  97.9083 225.8763 0010256 120.7259 239.4927 14.72919917486476
FENGYUN 3C              
1 39260U 13052A   22148.20131848  .00000098  00000+0  70511-4 0  9999
2 39260  98.4550 177.3395 0010707 339.5271  20.5478 14.15923098449053
CASSIOPE                
1 39265U 13055A   22147.92230804  .00013049  00000+0  34835-3 0  9995
2 39265  80.9637 289.1096 0624239  19.1350 343.2180 14.38346300449381
ZACUBE-1 (TSHEPISOSAT)  
1 39417U 13066B   22147.91364859  .00002315  00000+0  28751-3 0  9997
2 39417  97.6345 120.3417 0059490 111.3677 249.3900 14.82270377460087
CINEMA-3 (KHUSAT-2)     
1 39426U 13066L   22147.79636007  .00001220  00000+0  19546-3 0  9996
2 39426  97.7980  88.6258 0102040 302.5964  56.5423 14.70137614456238
TRITON-1                
1 39427U 13066M   22148.10398948  .00002290  00000+0  36430-3 0  9991
2 39427  97.8124  84.7849 0111237 330.5540  28.9429 14.68924184455985
DELFI-N3XT              
1 39428U 13066N   22148.09430179  .00003942  00000+0  61189-3 0  9997
2 39428  97.8139  83.3285 0117224 343.8632  15.8853 14.69107149455725
GOMX-1                  
1 39430U 13066Q   22148.17092571  .00001852  00000+0  33659-3 0  9998
2 39430  97.8106  56.5272 0150684 108.6308 253.1311 14.60135980453330
BRITE-PL1 (LEM)         
1 39431U 13066R   22147.83870778  .00000355  00000+0  86049-4 0  9993
2 39431  97.7035   3.3792 0200253 292.7752  65.2395 14.47334914449381
ICUBE-1                 
1 39432U 13066S   22147.92358236  .00002747  00000+0  27462-3 0  9994
2 39432  97.4665 152.7647 0030249 336.1134  23.8680 14.91911640461645
HUMSAT-D                
1 39433U 13066T   22147.92708445  .00004484  00000+0  41964-3 0  9999
2 39433  97.4497 160.3243 0027768 310.3714  49.5083 14.94275524462152
VELOX-PII               
1 39438U 13066Y   22147.86336969  .00001455  00000+0  19663-3 0  9991
2 39438  97.6905 111.4429 0069892 162.3989 197.9669 14.78840754457965
FIRST-MOVE              
1 39439U 13066Z   22148.18085279  .00004367  00000+0  51063-3 0  9998
2 39439  97.6354 122.8881 0064855 106.2383 254.5980 14.84068011460135
CUBEBUG-2 (LO-74)       
1 39440U 13066AA  22147.86029227  .00001512  00000+0  21137-3 0  9993
2 39440  97.7248 106.2867 0078214 197.2171 162.6384 14.76955527457242
NEE-02 KRYSAOR          
1 39441U 13066AB  22147.84501470  .00001043  00000+0  15221-3 0  9993
2 39441  97.7355 103.4691 0079757 210.7819 148.8702 14.75707166456993
FUNCUBE-1 (AO-73)       
1 39444U 13066AE  22147.87779576  .00003127  00000+0  37656-3 0  9994
2 39444  97.6222 122.7099 0058454 100.1605 260.6210 14.83337176458471
HINCUBE                 
1 39445U 13066AF  22147.92674668  .00002869  00000+0  34757-3 0  9998
2 39445  97.6239 122.5797 0058563 102.1095 258.6689 14.83145239458428
UWE-3                   
1 39446U 13066AG  22147.85016625  .00001828  00000+0  24147-3 0  9990
2 39446  97.6835 112.8080 0069388 155.2622 205.1945 14.79503839457419
AIST-1 (RS-41)          
1 39492U 13078C   22148.08466363  .00001761  00000+0  18676-3 0  9994
2 39492  82.4185 256.1005 0019870 169.2402 190.9236 14.88423107456750
SPROUT                  
1 39770U 14029E   22148.04481101  .00009275  00000+0  94900-3 0  9995
2 39770  97.9379 264.8617 0008992 148.0165 212.1634 14.90723651434625
UNISAT-6                
1 40012U 14033C   22147.75953988  .00001591  00000+0  23867-3 0  9992
2 40012  97.6622 336.8305 0056469 225.0716 134.5906 14.74854185426931
BUGSAT-1 (TITA)         
1 40014U 14033E   22147.94450620  .00003907  00000+0  34472-3 0  9997
2 40014  98.1404 145.5159 0032599 104.6546 255.8291 14.96633466433078
DUCHIFAT-1              
1 40021U 14033M   22147.82929110  .00003947  00000+0  38714-3 0  9994
2 40021  98.0107  97.6599 0014198 106.2927 253.9855 14.92753183431625
NANOSATC-BR1            
1 40024U 14033Q   22147.81852852  .00003046  00000+0  30875-3 0  9994
2 40024  97.9838  91.1263 0013499 112.1420 248.1232 14.91619617430908
QB50P1                  
1 40025U 14033R   22147.78106017  .00002955  00000+0  30868-3 0  9996
2 40025  97.9595  85.0220 0013642 121.1324 239.1233 14.90417266430688
DTUSAT-2                
1 40030U 14033W   22148.09550005  .00003023  00000+0  31985-3 0  9995
2 40030  97.9373  80.7828 0013151 117.1678 243.0882 14.89883488431121
QB50P2                  
1 40032U 14033Y   22147.86581661  .00002419  00000+0  25737-3 0  9999
2 40032  97.9376  80.5654 0013023 118.7530 241.4997 14.89851953430550
POLYITAN-1              
1 40042U 14033AJ  22147.79549983  .00003012  00000+0  31438-3 0  9998
2 40042  97.9703  86.1990 0016006 114.0777 246.2117 14.90419067430573
TIGRISAT                
1 40043U 14033AK  22147.80835160  .00001257  00000+0  18924-3 0  9990
2 40043  97.6568 338.1837 0058270 222.3523 137.3181 14.74967907426581
AISAT                   
1 40054U 14034B   22147.88052281  .00003334  00000+0  45195-3 0  9994
2 40054  98.3575 318.4803 0012740  26.7886 333.3980 14.79588272426431
CANX-4                  
1 40055U 14034C   22148.19696170  .00000951  00000+0  14788-3 0  9997
2 40055  98.3536 304.4873 0015207  65.0305 295.2481 14.75410546425765
CANX-5                  
1 40056U 14034D   22147.38957142  .00000988  00000+0  15332-3 0  9993
2 40056  98.3536 303.6347 0015261  67.5781 292.7042 14.75403225416422
VELOX-I                 
1 40057U 14034E   22148.08350277  .00003465  00000+0  47523-3 0  9998
2 40057  98.3641 319.8243 0011381  40.5229 319.6809 14.79080501426468
METEOR-M 2              
1 40069U 14037A   22148.25147005  .00000017  00000+0  27075-4 0  9997
2 40069  98.4325 166.9765 0006372  31.3388 328.8167 14.20709092408995
DX1                     
1 40071U 14037C   22148.14719458  .00001294  00000+0  17110-3 0  9991
2 40071  98.4121  15.8743 0009091  30.0064 330.1663 14.81844299426339
UKUBE-1                 
1 40074U 14037F   22148.07495158  .00003041  00000+0  36040-3 0  9999
2 40074  98.3842  27.6762 0005188   9.3816 350.7492 14.85343083427046
FIREBIRD 3              
1 40377U 15003B   22148.15052500  .00023552  00000+0  71085-3 0  9995
2 40377  99.1036   8.5447 0103093  94.2077 267.0947 15.29120746405320
FIREBIRD 4              
1 40378U 15003C   22147.85018230  .00022598  00000+0  68059-3 0  9990
2 40378  99.1041   8.3829 0103050  94.8652 266.4358 15.29200573405277
GRIFEX                  
1 40379U 15003D   22148.15037578  .00015510  00000+0  55099-3 0  9997
2 40379  99.1139 354.8909 0117606 135.0411 226.0417 15.22744144404544
CP10 (EXOCUBE)          
1 40380U 15003E   22148.07635007  .00011124  00000+0  42901-3 0  9996
2 40380  99.1222 347.7380 0124870 158.7483 201.8999 15.19502866404078
DEORBITSAIL             
1 40719U 15032E   22148.13991133  .00002911  00000+0  40624-3 0  9990
2 40719  97.7856  27.1540 0017572  71.9606 288.3519 14.78327025370886
NUDT-PHONESAT           
1 40900U 15049B   22148.04977568  .00034067  00000+0  99867-3 0  9996
2 40900  97.4013 165.9317 0009258  16.2848  43.5537 15.35077782371489
XW-2A                   
1 40903U 15049E   22148.09736652  .00026114  00000+0  42276-3 0  9997
2 40903  97.1805 206.6112 0010161 184.6252 232.9356 15.52732538376101
XW-2C                   
1 40906U 15049H   22147.97222959  .00007957  00000+0  38336-3 0  9992
2 40906  97.4924 151.5520 0015578  72.8824 345.5584 15.18897580369815
XW-2D                   
1 40907U 15049J   22148.07213035  .00009063  00000+0  42843-3 0  9998
2 40907  97.4921 151.6157 0015260  68.9163   2.2221 15.19520990369870
LILACSAT-2              
1 40908U 15049K   22148.08884380  .00004251  00000+0  22602-3 0  9992
2 40908  97.5161 148.8757 0017093  87.2543 347.3115 15.15691194369409
XW-2E                   
1 40909U 15049L   22148.03641895  .00013576  00000+0  57485-3 0  9997
2 40909  97.4649 156.0601 0013313  53.9062  10.7748 15.23210261370301
XW-2F                   
1 40910U 15049M   22148.08973425  .00013494  00000+0  57997-3 0  9998
2 40910  97.4724 155.2434 0014679  53.1099  18.0232 15.22687263370083
XW-2B                   
1 40911U 15049N   22148.09617088  .00008821  00000+0  41846-3 0  9994
2 40911  97.4902 152.2472 0014949  69.2041   4.1962 15.19410477369762
KAITUO 1B               
1 40912U 15049P   22147.99970755  .00015292  00000+0  60025-3 0  9996
2 40912  97.4374 159.5063 0013447  23.4480  28.3194 15.25730203370635
TIANWANG 1A (TW-1A)     
1 40928U 15051D   22148.07004531  .00047274  00000+0  62098-3 0  9993
2 40928  97.0404 170.9208 0010068 103.7934 319.1204 15.58319639375069
LAPAN-A2                
1 40931U 15052B   22147.98798844  .00001147  00000+0  70324-4 0  9995
2 40931   6.0001 315.0547 0013357 245.6522 114.2220 14.76808909360313
LQSAT                   
1 40958U 15057A   22148.09771307  .00000732  00000+0  12008-3 0  9990
2 40958  97.7510 195.2212 0018827  30.4412 329.7891 14.73355630356986
ATHENOXAT 1             
1 41168U 15077C   22147.62079573  .00020945  00000+0  88968-3 0  9996
2 41168  14.9883 244.8009 0010496 301.1890  97.1581 15.20593976357131
GALASSIA                
1 41170U 15077E   22147.85656925  .00013355  00000+0  56566-3 0  9992
2 41170  14.9880 233.7092 0010787 339.8810  20.1086 15.20021699357081
VELOX-II                
1 41171U 15077F   22147.78680212  .00008868  00000+0  41742-3 0  9994
2 41171  14.9924 306.3950 0007716 179.6278 180.4049 15.15537351356479
CHUBUSAT-2              
1 41338U 16012B   22147.72266758  .00002201  00000+0  16020-3 0  9994
2 41338  31.0014 155.8872 0013421 306.2891  53.6505 15.01315291344368
CHUBUSAT-3              
1 41339U 16012C   22148.11549125  .00002635  00000+0  19267-3 0  9998
2 41339  31.0113 150.3300 0013280 316.9539  43.0030 15.01404011344427
HORYU-4                 
1 41340U 16012D   22147.65548961  .00003895  00000+0  27440-3 0  9996
2 41340  31.0032 131.9377 0013188 352.2984   7.7448 15.03208760344595
